[
    {
        "Altitude(m)": 705375.5179279938,
        "Argument of Periapsis(deg)": 0.009112096949301655,
        "Eccentricity": 0.0,
        "Inclination(deg)": 45.0,
        "Latitude(deg)": 36.12491062168535,
        "Longitude(deg)": -67.1616698926334,
        "Mean Anomaly(deg)": -236.2279266820153,
        "RAAN(deg)": 259.99139844683344,
        "Satellite Name": "Constellation 1 1151",
        "Satellite Number": 1151,
        "Semi-Major Axis(m)": 7083131.272910544,
        "Time(s)": 152
    },
    {
        "Altitude(m)": 705369.6632630579,
        "Argument of Periapsis(deg)": 0.009172044955547059,
        "Eccentricity": 0.0,
        "Inclination(deg)": 45.0,
        "Latitude(deg)": 36.0952636654959,
        "Longitude(deg)": -67.10025114482346,
        "Mean Anomaly(deg)": -236.16722554176548,
        "RAAN(deg)": 259.99134185766786,
        "Satellite Name": "Constellation 1 1151",
        "Satellite Number": 1151,
        "Semi-Major Axis(m)": 7083131.272910544,
        "Time(s)": 153
    },
    {
        "Altitude(m)": 705363.8056958176,
        "Argument of Periapsis(deg)": 0.009231992961792466,
        "Eccentricity": 0.0,
        "Inclination(deg)": 45.0,
        "Latitude(deg)": 36.06558076692259,
        "Longitude(deg)": -67.03888159833755,
        "Mean Anomaly(deg)": -236.10652440151546,
        "RAAN(deg)": 259.99128526850234,
        "Satellite Name": "Constellation 1 1151",
        "Satellite Number": 1151,
        "Semi-Major Axis(m)": 7083131.272910544,
        "Time(s)": 154
    },
    {
        "Altitude(m)": 705357.9452631876,
        "Argument of Periapsis(deg)": 0.009291940968037872,
        "Eccentricity": 0.0,
        "Inclination(deg)": 45.0,
        "Latitude(deg)": 36.035861991188725,
        "Longitude(deg)": -66.97756122204768,
        "Mean Anomaly(deg)": -236.04582326126567,
        "RAAN(deg)": 259.9912286793367,
        "Satellite Name": "Constellation 1 1151",
        "Satellite Number": 1151,
        "Semi-Major Axis(m)": 7083131.272910544,
        "Time(s)": 155
    },
    {
        "Altitude(m)": 705352.0820021152,
        "Argument of Periapsis(deg)": 0.009351888974283276,
        "Eccentricity": 0.0,
        "Inclination(deg)": 45.0,
        "Latitude(deg)": 36.006107403461115,
        "Longitude(deg)": -66.91629015267597,
        "Mean Anomaly(deg)": -235.98512212101576,
        "RAAN(deg)": 259.9911720901712,
        "Satellite Name": "Constellation 1 1151",
        "Satellite Number": 1151,
        "Semi-Major Axis(m)": 7083131.272910544,
        "Time(s)": 156
    },
    {
        "Altitude(m)": 705346.2159495773,
        "Argument of Periapsis(deg)": 0.00941183698052868,
        "Eccentricity": 0.0,
        "Inclination(deg)": 45.0,
        "Latitude(deg)": 35.97631706885023,
        "Longitude(deg)": -66.85506802240866,
        "Mean Anomaly(deg)": -235.92442098076583,
        "RAAN(deg)": 259.9911155010056,
        "Satellite Name": "Constellation 1 1151",
        "Satellite Number": 1151,
        "Semi-Major Axis(m)": 7083131.272910544,
        "Time(s)": 157
    },
    {
        "Altitude(m)": 705340.3471425815,
        "Argument of Periapsis(deg)": 0.009471784986774088,
        "Eccentricity": 0.0,
        "Inclination(deg)": 45.0,
        "Latitude(deg)": 35.94649105240937,
        "Longitude(deg)": -66.79389496747848,
        "Mean Anomaly(deg)": -235.86371984051593,
        "RAAN(deg)": 259.99105891184,
        "Satellite Name": "Constellation 1 1151",
        "Satellite Number": 1151,
        "Semi-Major Axis(m)": 7083131.272910544,
        "Time(s)": 158
    },
    {
        "Altitude(m)": 705334.475618163,
        "Argument of Periapsis(deg)": 0.009531732993019492,
        "Eccentricity": 0.0,
        "Inclination(deg)": 45.0,
        "Latitude(deg)": 35.916629419135006,
        "Longitude(deg)": -66.73277095577873,
        "Mean Anomaly(deg)": -235.80301870026605,
        "RAAN(deg)": 259.9910023226745,
        "Satellite Name": "Constellation 1 1151",
        "Satellite Number": 1151,
        "Semi-Major Axis(m)": 7083131.272910544,
        "Time(s)": 159
    },
    {
        "Altitude(m)": 705328.6014133864,
        "Argument of Periapsis(deg)": 0.009591680999264898,
        "Eccentricity": 0.0,
        "Inclination(deg)": 45.0,
        "Latitude(deg)": 35.88673223396614,
        "Longitude(deg)": -66.67169595496131,
        "Mean Anomaly(deg)": -235.74231756001615,
        "RAAN(deg)": 259.99094573350885,
        "Satellite Name": "Constellation 1 1151",
        "Satellite Number": 1151,
        "Semi-Major Axis(m)": 7083131.272910544,
        "Time(s)": 160
    },
    {
        "Altitude(m)": 705322.7245653482,
        "Argument of Periapsis(deg)": 0.009651629005510304,
        "Eccentricity": 0.0,
        "Inclination(deg)": 45.0,
        "Latitude(deg)": 35.856799561784214,
        "Longitude(deg)": -66.61066993243803,
        "Mean Anomaly(deg)": -235.68161641976621,
        "RAAN(deg)": 259.9908891443433,
        "Satellite Name": "Constellation 1 1151",
        "Satellite Number": 1151,
        "Semi-Major Axis(m)": 7083131.272910544,
        "Time(s)": 161
    },
    {
        "Altitude(m)": 705316.8451111686,
        "Argument of Periapsis(deg)": 0.00971157701175571,
        "Eccentricity": 0.0,
        "Inclination(deg)": 45.0,
        "Latitude(deg)": 35.82683146741298,
        "Longitude(deg)": -66.54969285538219,
        "Mean Anomaly(deg)": -235.62091527951634,
        "RAAN(deg)": 259.99083255517775,
        "Satellite Name": "Constellation 1 1151",
        "Satellite Number": 1151,
        "Semi-Major Axis(m)": 7083131.272910544,
        "Time(s)": 162
    },
    {
        "Altitude(m)": 705310.9630880019,
        "Argument of Periapsis(deg)": 0.009771525018001118,
        "Eccentricity": 0.0,
        "Inclination(deg)": 45.0,
        "Latitude(deg)": 35.79682801561786,
        "Longitude(deg)": -66.4887648588263,
        "Mean Anomaly(deg)": -235.56021413926644,
        "RAAN(deg)": 259.99077596601217,
        "Satellite Name": "Constellation 1 1151",
        "Satellite Number": 1151,
        "Semi-Major Axis(m)": 7083131.272910544,
        "Time(s)": 163
    },
    {
        "Altitude(m)": 705305.0785330302,
        "Argument of Periapsis(deg)": 0.00983147302424652,
        "Eccentricity": 0.0,
        "Inclination(deg)": 45.0,
        "Latitude(deg)": 35.766789271106425,
        "Longitude(deg)": -66.42788557327623,
        "Mean Anomaly(deg)": -235.4995129990165,
        "RAAN(deg)": 259.9907193768466,
        "Satellite Name": "Constellation 1 1151",
        "Satellite Number": 1151,
        "Semi-Major Axis(m)": 7083131.272910544,
        "Time(s)": 164
    },
    {
        "Altitude(m)": 705299.1914834597,
        "Argument of Periapsis(deg)": 0.009891421030491928,
        "Eccentricity": 0.0,
        "Inclination(deg)": 45.0,
        "Latitude(deg)": 35.736715298527436,
        "Longitude(deg)": -66.36705513329409,
        "Mean Anomaly(deg)": -235.4388118587666,
        "RAAN(deg)": 259.990662787681,
        "Satellite Name": "Constellation 1 1151",
        "Satellite Number": 1151,
        "Semi-Major Axis(m)": 7083131.272910544,
        "Time(s)": 165
    },
    {
        "Altitude(m)": 705293.3019765312,
        "Argument of Periapsis(deg)": 0.009951369036737332,
        "Eccentricity": 0.0,
        "Inclination(deg)": 45.0,
        "Latitude(deg)": 35.70660616247098,
        "Longitude(deg)": -66.30627350511116,
        "Mean Anomaly(deg)": -235.37811071851675,
        "RAAN(deg)": 259.9906061985155,
        "Satellite Name": "Constellation 1 1151",
        "Satellite Number": 1151,
        "Semi-Major Axis(m)": 7083131.272910544,
        "Time(s)": 166
    },
    {
        "Altitude(m)": 705287.410049506,
        "Argument of Periapsis(deg)": 0.010011317042982738,
        "Eccentricity": 0.0,
        "Inclination(deg)": 45.0,
        "Latitude(deg)": 35.676461927468075,
        "Longitude(deg)": -66.24554065472661,
        "Mean Anomaly(deg)": -235.31740957826688,
        "RAAN(deg)": 259.9905496093499,
        "Satellite Name": "Constellation 1 1151",
        "Satellite Number": 1151,
        "Semi-Major Axis(m)": 7083131.272910544,
        "Time(s)": 167
    },
    {
        "Altitude(m)": 705281.515739684,
        "Argument of Periapsis(deg)": 0.010071265049228144,
        "Eccentricity": 0.0,
        "Inclination(deg)": 45.0,
        "Latitude(deg)": 35.6462826579907,
        "Longitude(deg)": -66.18485654790906,
        "Mean Anomaly(deg)": -235.25670843801694,
        "RAAN(deg)": 259.9904930201843,
        "Satellite Name": "Constellation 1 1151",
        "Satellite Number": 1151,
        "Semi-Major Axis(m)": 7083131.272910544,
        "Time(s)": 168
    },
    {
        "Altitude(m)": 705275.619084378,
        "Argument of Periapsis(deg)": 0.01013121305547355,
        "Eccentricity": 0.0,
        "Inclination(deg)": 45.0,
        "Latitude(deg)": 35.61606841845141,
        "Longitude(deg)": -66.12422115019741,
        "Mean Anomaly(deg)": -235.19600729776707,
        "RAAN(deg)": 259.99043643101874,
        "Satellite Name": "Constellation 1 1151",
        "Satellite Number": 1151,
        "Semi-Major Axis(m)": 7083131.272910544,
        "Time(s)": 169
    },
    {
        "Altitude(m)": 705269.7201209449,
        "Argument of Periapsis(deg)": 0.010191161061718957,
        "Eccentricity": 0.0,
        "Inclination(deg)": 45.0,
        "Latitude(deg)": 35.5858192732029,
        "Longitude(deg)": -66.0636344269021,
        "Mean Anomaly(deg)": -235.13530615751714,
        "RAAN(deg)": 259.99037984185316,
        "Satellite Name": "Constellation 1 1151",
        "Satellite Number": 1151,
        "Semi-Major Axis(m)": 7083131.272910544,
        "Time(s)": 170
    }
]